STARLINK-36698          
1 67709U 26025S   26193.24378855  .00020030  00000+0  62087-3 0  9997
2 67709  97.2844 304.2173 0002105  91.2222 268.9262 15.33455909 25108
STARLINK-36344          
1 67710U 26025T   26193.79029544  .00018574  00000+0  57590-3 0  9990
2 67710  97.2826 304.6980 0000407  60.2553 299.8730 15.33464500 25195
STARLINK-36687          
1 67711U 26025U   26193.76038913  .00023520  00000+0  72827-3 0  9995
2 67711  97.2850 304.7448 0001195 130.3560 229.7788 15.33458923 25192
STARLINK-36705          
1 67712U 26025V   26193.80661139  .00017835  00000+0  55324-3 0  9998
2 67712  97.2832 304.6778 0000812 124.7649 235.3670 15.33456998 25180
STARLINK-36708          
1 67713U 26025W   26193.23687069  .00009599  00000+0  29947-3 0  9996
2 67713  97.2867 303.3141 0001738 164.5986 195.5310 15.33422789 25047
STARLINK-36702          
1 67714U 26025X   26193.80389241  .00024933  00000+0  77197-3 0  9990
2 67714  97.2851 304.6823 0001662 121.1506 238.9900 15.33448907 25187
STARLINK-36718          
1 67715U 26025Y   26193.79302209  .00019587  00000+0  60706-3 0  9995
2 67715  97.2897 304.6988 0002748  89.7388 270.4169 15.33463872 25189
STARLINK-36715          
1 67716U 26025Z   26193.75767286  .00014288  00000+0  44398-3 0  9994
2 67716  97.2839 304.5943 0000957  84.6783 275.4569 15.33451364 25170
STARLINK-36385          
1 67717U 26025AA  26193.77670080  .00009937  00000+0  30977-3 0  9995
2 67717  97.2852 304.7199 0001033 161.3331 198.7949 15.33441073 25185
STARLINK-36772          
1 67721U 26026A   26193.72829015  .00008339  00000+0  26035-3 0  9995
2 67721  97.2852 246.4870 0001254 106.7352 253.4028 15.33445908 23286
STARLINK-36796          
1 67722U 26026B   26193.72557010  .00014608  00000+0  45382-3 0  9991
2 67722  97.2852 246.4914 0001057 120.0972 240.0375 15.33453088 23289
STARLINK-36369          
1 67723U 26026C   26193.72284848  .00009544  00000+0  29749-3 0  9990
2 67723  97.2843 246.4967 0000387 154.6948 205.4313 15.33454053 23289
STARLINK-36752          
1 67724U 26026D   26193.72013218  .00008284  00000+0  25864-3 0  9996
2 67724  97.2839 246.5008 0000522 157.2404 202.8862 15.33446105 23288
STARLINK-36754          
1 67725U 26026E   26193.71741547  .00014568  00000+0  45301-3 0  9999
2 67725  97.2850 246.5027 0001011 241.8246 118.2894 15.33423048 23287
STARLINK-36755          
1 67726U 26026F   26193.71469779  .00013142  00000+0  40855-3 0  9990
2 67726  97.2850 246.5053 0000977 224.8888 135.2276 15.33457467 23285
STARLINK-36741          
1 67727U 26026G   26193.71198111  .00012550  00000+0  39035-3 0  9990
2 67727  97.2840 246.5100 0002117  51.3793 308.7639 15.33450041 23285
STARLINK-36757          
1 67728U 26026H   26193.70925369  .00011219  00000+0  34923-3 0  9995
2 67728  97.2847 246.5146 0000606 170.9661 189.1593 15.33452573 23288
STARLINK-36751          
1 67729U 26026J   26193.70381330  .00018946  00000+0  58745-3 0  9992
2 67729  97.2824 246.5258 0001460 186.9058 173.2165 15.33458973 23283
STARLINK-36747          
1 67730U 26026K   26193.70653966  .00009981  00000+0  31103-3 0  9999
2 67730  97.2846 246.5185 0001229  91.3400 268.7983 15.33449073 23280
STARLINK-36315          
1 67731U 26026L   26193.70109883  .00009560  00000+0  29803-3 0  9991
2 67731  97.2843 246.5269 0000823 187.2706 172.8525 15.33449190 23281
STARLINK-36260          
1 67732U 26026M   26193.69837894  .00012578  00000+0  39121-3 0  9997
2 67732  97.2843 246.5311 0001015 173.5104 186.6152 15.33451737 23283
STARLINK-36746          
1 67733U 26026N   26193.69566031  .00013295  00000+0  41332-3 0  9994
2 67733  97.2845 246.5300 0000704 129.1294 231.0011 15.33452251 23286
STARLINK-36749          
1 67734U 26026P   26193.69295414  .00023925  00000+0  74131-3 0  9993
2 67734  97.2872 246.5347 0002168  46.6164 313.5259 15.33432231 23289
STARLINK-36691          
1 67735U 26026Q   26193.75275889  .00015920  00000+0  49424-3 0  9998
2 67735  97.2933 246.6005 0001125 137.4850 222.6480 15.33456870 23295
STARLINK-36317          
1 67736U 26026R   26193.75549463  .00020037  00000+0  62089-3 0  9998
2 67736  97.2850 246.6040 0001356 101.5421 258.5974 15.33468017 23297
STARLINK-36330          
1 67737U 26026S   26193.68478354  .00008111  00000+0  25328-3 0  9995
2 67737  97.2840 246.5478 0000175 224.2772 135.8456 15.33447877 23283
STARLINK-36327          
1 67738U 26026T   26193.74731625  .00022649  00000+0  70163-3 0  9995
2 67738  97.2897 246.6114 0000900 210.5421 149.5769 15.33451962 23299
STARLINK-36329          
1 67739U 26026U   26193.73102542  .00016261  00000+0  50522-3 0  9995
2 67739  97.2871 246.6398 0000721 280.2508  79.8653 15.33427203 23295
STARLINK-36737          
1 67740U 26026V   26193.74460492  .00013055  00000+0  40590-3 0  9991
2 67740  97.2864 246.6179 0001359  93.5305 266.6093 15.33454140 23298
STARLINK-36740          
1 67741U 26026W   26193.73372649  .00009827  00000+0  30627-3 0  9999
2 67741  97.2844 246.6348 0000450  87.5772 272.5522 15.33451809 23299
