OBJECT_NAME,OBJECT_ID,EPOCH,MEAN_MOTION,ECCENTRICITY,INCLINATION,RA_OF_ASC_NODE,ARG_OF_PERICENTER,MEAN_ANOMALY,EPHEMERIS_TYPE,CLASSIFICATION_TYPE,NORAD_CAT_ID,ELEMENT_SET_NO,REV_AT_EPOCH,BSTAR,MEAN_MOTION_DOT,MEAN_MOTION_DDOT
STARLINK-36698,2026-025S,2026-07-12T05:51:03.330720,15.33455909,.0002105,97.2844,304.2173,91.2222,268.9262,0,U,67709,999,2510,.62087E-3,.2003E-3,0
STARLINK-36344,2026-025T,2026-07-12T18:58:01.526016,15.33464500,.0000407,97.2826,304.6980,60.2553,299.8730,0,U,67710,999,2519,.5759E-3,.18574E-3,0
STARLINK-36687,2026-025U,2026-07-12T18:14:57.620832,15.33458923,.0001195,97.2850,304.7448,130.3560,229.7788,0,U,67711,999,2519,.72827E-3,.2352E-3,0
STARLINK-36705,2026-025V,2026-07-12T19:21:31.224096,15.33456998,.0000812,97.2832,304.6778,124.7649,235.3670,0,U,67712,999,2518,.55324E-3,.17835E-3,0
STARLINK-36708,2026-025W,2026-07-12T05:41:05.627616,15.33422789,.0001738,97.2867,303.3141,164.5986,195.5310,0,U,67713,999,2504,.29947E-3,.9599E-4,0
STARLINK-36702,2026-025X,2026-07-12T19:17:36.304224,15.33448907,.0001662,97.2851,304.6823,121.1506,238.9900,0,U,67714,999,2518,.77197E-3,.24933E-3,0
STARLINK-36718,2026-025Y,2026-07-12T19:01:57.108576,15.33463872,.0002748,97.2897,304.6988,89.7388,270.4169,0,U,67715,999,2518,.60706E-3,.19587E-3,0
STARLINK-36715,2026-025Z,2026-07-12T18:11:02.935104,15.33451364,.0000957,97.2839,304.5943,84.6783,275.4569,0,U,67716,999,2517,.44398E-3,.14288E-3,0
STARLINK-36385,2026-025AA,2026-07-12T18:38:26.949120,15.33441073,.0001033,97.2852,304.7199,161.3331,198.7949,0,U,67717,999,2518,.30977E-3,.9937E-4,0
STARLINK-36772,2026-026A,2026-07-12T17:28:44.268960,15.33445908,.0001254,97.2852,246.4870,106.7352,253.4028,0,U,67721,999,2328,.26035E-3,.8339E-4,0
STARLINK-36796,2026-026B,2026-07-12T17:24:49.256640,15.33453088,.0001057,97.2852,246.4914,120.0972,240.0375,0,U,67722,999,2328,.45382E-3,.14608E-3,0
STARLINK-36369,2026-026C,2026-07-12T17:20:54.108672,15.33454053,.0000387,97.2843,246.4967,154.6948,205.4313,0,U,67723,999,2328,.29749E-3,.9544E-4,0
STARLINK-36752,2026-026D,2026-07-12T17:16:59.420352,15.33446105,.0000522,97.2839,246.5008,157.2404,202.8862,0,U,67724,999,2328,.25864E-3,.8284E-4,0
STARLINK-36754,2026-026E,2026-07-12T17:13:04.696608,15.33423048,.0001011,97.2850,246.5027,241.8246,118.2894,0,U,67725,999,2328,.45301E-3,.14568E-3,0
STARLINK-36755,2026-026F,2026-07-12T17:09:09.889056,15.33457467,.0000977,97.2850,246.5053,224.8888,135.2276,0,U,67726,999,2328,.40855E-3,.13142E-3,0
STARLINK-36741,2026-026G,2026-07-12T17:05:15.167904,15.33450041,.0002117,97.2840,246.5100,51.3793,308.7639,0,U,67727,999,2328,.39035E-3,.1255E-3,0
STARLINK-36757,2026-026H,2026-07-12T17:01:19.518816,15.33452573,.0000606,97.2847,246.5146,170.9661,189.1593,0,U,67728,999,2328,.34923E-3,.11219E-3,0
STARLINK-36751,2026-026J,2026-07-12T16:53:29.469120,15.33458973,.000146,97.2824,246.5258,186.9058,173.2165,0,U,67729,999,2328,.58745E-3,.18946E-3,0
STARLINK-36747,2026-026K,2026-07-12T16:57:25.026624,15.33449073,.0001229,97.2846,246.5185,91.3400,268.7983,0,U,67730,999,2328,.31103E-3,.9981E-4,0
STARLINK-36315,2026-026L,2026-07-12T16:49:34.938912,15.33449190,.0000823,97.2843,246.5269,187.2706,172.8525,0,U,67731,999,2328,.29803E-3,.956E-4,0
STARLINK-36260,2026-026M,2026-07-12T16:45:39.940416,15.33451737,.0001015,97.2843,246.5311,173.5104,186.6152,0,U,67732,999,2328,.39121E-3,.12578E-3,0
STARLINK-36746,2026-026N,2026-07-12T16:41:45.050784,15.33452251,.0000704,97.2845,246.5300,129.1294,231.0011,0,U,67733,999,2328,.41332E-3,.13295E-3,0
STARLINK-36749,2026-026P,2026-07-12T16:37:51.237696,15.33432231,.0002168,97.2872,246.5347,46.6164,313.5259,0,U,67734,999,2328,.74131E-3,.23925E-3,0
STARLINK-36691,2026-026Q,2026-07-12T18:03:58.368096,15.33456870,.0001125,97.2933,246.6005,137.4850,222.6480,0,U,67735,999,2329,.49424E-3,.1592E-3,0
STARLINK-36317,2026-026R,2026-07-12T18:07:54.736032,15.33468017,.0001356,97.2850,246.6040,101.5421,258.5974,0,U,67736,999,2329,.62089E-3,.20037E-3,0
STARLINK-36330,2026-026S,2026-07-12T16:26:05.297856,15.33447877,.0000175,97.2840,246.5478,224.2772,135.8456,0,U,67737,999,2328,.25328E-3,.8111E-4,0
STARLINK-36327,2026-026T,2026-07-12T17:56:08.124000,15.33451962,.00009,97.2897,246.6114,210.5421,149.5769,0,U,67738,999,2329,.70163E-3,.22649E-3,0
STARLINK-36329,2026-026U,2026-07-12T17:32:40.596288,15.33427203,.0000721,97.2871,246.6398,280.2508,79.8653,0,U,67739,999,2329,.50522E-3,.16261E-3,0
STARLINK-36737,2026-026V,2026-07-12T17:52:13.865088,15.33454140,.0001359,97.2864,246.6179,93.5305,266.6093,0,U,67740,999,2329,.4059E-3,.13055E-3,0
STARLINK-36740,2026-026W,2026-07-12T17:36:33.968736,15.33451809,.000045,97.2844,246.6348,87.5772,272.5522,0,U,67741,999,2329,.30627E-3,.9827E-4,0
